GS-1                    
1 56372U 23060C   26065.50403648 -.00000179  00000+0  00000+0 0  9999
2 56372   2.4607  81.0544 0004761 262.8920  85.1835  1.00299102  6508
BEIDOU-3 G4             
1 56564U 23066A   26066.61816492 -.00000112  00000+0  00000+0 0  9993
2 56564   0.6429 311.3646 0002340 155.5272  81.0116  1.00272485 10376
ARABSAT-7B (BADR-8)     
1 56757U 23075A   26066.07802912  .00000142  00000+0  00000+0 0  9991
2 56757   0.0781  25.8379 0005511 331.1491 221.8789  1.00266509 10092
NVS-01 (IRNSS-1J)       
1 56759U 23076A   26066.36364374 -.00000339  00000+0  00000+0 0  9990
2 56759   2.4116 248.5178 0007162  46.2259 130.7664  1.00272800 10094
NUSANTARA TIGA (SATRIA) 
1 57045U 23086A   26066.53586584  .00000000  00000+0  00000+0 0  9992
2 57045   0.0212 287.7214 0005877  37.8239 178.6172  1.00268160  8743
FALCON 9 R/B            
1 57046U 23086B   26065.49747003 -.00000172  00000+0  79303-2 0  9998
2 57046  26.8196 231.3786 7797280 146.6331 304.8924  1.46546708 14130
H2SAT (HEINRICH HERTZ)  
1 57213U 23093A   26066.26572604  .00000000  00000+0  00000+0 0  9995
2 57213   0.0447 303.7803 0001510 161.3590 156.1757  1.00271728  9897
SYRACUSE 4B             
1 57214U 23093B   26066.42961529 -.00000055  00000+0  00000+0 0  9993
2 57214   0.0212 142.2018 0000357 272.8516 258.2559  1.00271445  5948
JUPITER 3 (ECHOSTAR 24) 
1 57479U 23108A   26065.80734051 -.00000153  00000+0  00000+0 0  9991
2 57479   0.0104 140.1189 0001123 200.5797  19.2714  1.00271639  9620
FALCON HEAVY R/B        
1 57480U 23108B   26066.10473974 -.00000111  00000+0  00000+0 0  9995
2 57480  11.1071 103.3534 4952379  12.2595 356.5312  1.84352725 17560
GALAXY 37 (G-37)        
1 57493U 23112A   26066.52336347  .00000047  00000+0  00000+0 0  9999
2 57493   0.0153 104.8074 0002034 248.7216 233.0938  1.00272380  9529
ATLAS 5 CENTAUR DEB     
1 57590U 18079HR  26057.22289897 -.00000079  00000+0  00000+0 0  9993
2 57590  11.7561  96.4039 4944295 185.5928 165.7012  1.56216679 24725
ATLAS 5 CENTAUR DEB     
1 57595U 18079HW  26057.27646006 -.00000131  00000+0  00000+0 0  9991
2 57595  12.5292  80.5223 4686304 224.1991  87.1117  1.69242768 26393
LUDI TANCE-4 01A        
1 57624U 23120A   26065.81331012 -.00000191  00000+0  00000+0 0  9990
2 57624  15.1734 196.5024 0005066 107.5025 242.9324  1.00268733  9512
TJS-10                  
1 58204U 23169A   26066.78146574 -.00000309  00000+0  00000+0 0  9993
2 58204   2.2825  81.7274 0010929 235.1643 245.0783  0.99764335  8524
ZHONGXING-6E            
1 58253U 23172A   26065.64211558 -.00000365  00000+0  00000+0 0  9992
2 58253   0.0529 267.5543 0002655  92.4842 150.9430  1.00267455  8639
YAOGAN-41               
1 58582U 23197A   26066.31905644 -.00000364  00000+0  00000+0 0  9994
2 58582   3.3174 311.6284 0010701 180.2812 271.2051  1.00274066  8309
