[{"OBJECT_NAME":"GS-1","OBJECT_ID":"2023-060C","EPOCH":"2026-03-06T12:05:48.751872","MEAN_MOTION":1.00299102,"ECCENTRICITY":0.00047612,"INCLINATION":2.4607,"RA_OF_ASC_NODE":81.0544,"ARG_OF_PERICENTER":262.892,"MEAN_ANOMALY":85.1835,"EPHEMERIS_TYPE":0,"CLASSIFICATION_TYPE":"U","NORAD_CAT_ID":56372,"ELEMENT_SET_NO":999,"REV_AT_EPOCH":650,"BSTAR":0,"MEAN_MOTION_DOT":-1.79e-6,"MEAN_MOTION_DDOT":0},{"OBJECT_NAME":"BEIDOU-3 G4","OBJECT_ID":"2023-066A","EPOCH":"2026-03-07T14:50:09.449088","MEAN_MOTION":1.00272485,"ECCENTRICITY":0.00023402,"INCLINATION":0.6429,"RA_OF_ASC_NODE":311.3646,"ARG_OF_PERICENTER":155.5272,"MEAN_ANOMALY":81.0116,"EPHEMERIS_TYPE":0,"CLASSIFICATION_TYPE":"U","NORAD_CAT_ID":56564,"ELEMENT_SET_NO":999,"REV_AT_EPOCH":1037,"BSTAR":0,"MEAN_MOTION_DOT":-1.12e-6,"MEAN_MOTION_DDOT":0},{"OBJECT_NAME":"ARABSAT-7B (BADR-8)","OBJECT_ID":"2023-075A","EPOCH":"2026-03-07T01:52:21.715968","MEAN_MOTION":1.00266509,"ECCENTRICITY":0.00055118,"INCLINATION":0.0781,"RA_OF_ASC_NODE":25.8379,"ARG_OF_PERICENTER":331.1491,"MEAN_ANOMALY":221.8789,"EPHEMERIS_TYPE":0,"CLASSIFICATION_TYPE":"U","NORAD_CAT_ID":56757,"ELEMENT_SET_NO":999,"REV_AT_EPOCH":1009,"BSTAR":0,"MEAN_MOTION_DOT":1.42e-6,"MEAN_MOTION_DDOT":0},{"OBJECT_NAME":"NVS-01 (IRNSS-1J)","OBJECT_ID":"2023-076A","EPOCH":"2026-03-07T08:43:38.819136","MEAN_MOTION":1.002728,"ECCENTRICITY":0.00071621,"INCLINATION":2.4116,"RA_OF_ASC_NODE":248.5178,"ARG_OF_PERICENTER":46.2259,"MEAN_ANOMALY":130.7664,"EPHEMERIS_TYPE":0,"CLASSIFICATION_TYPE":"U","NORAD_CAT_ID":56759,"ELEMENT_SET_NO":999,"REV_AT_EPOCH":1009,"BSTAR":0,"MEAN_MOTION_DOT":-3.39e-6,"MEAN_MOTION_DDOT":0},{"OBJECT_NAME":"NUSANTARA TIGA (SATRIA)","OBJECT_ID":"2023-086A","EPOCH":"2026-03-07T12:51:38.808576","MEAN_MOTION":1.0026816,"ECCENTRICITY":0.00058775,"INCLINATION":0.0212,"RA_OF_ASC_NODE":287.7214,"ARG_OF_PERICENTER":37.8239,"MEAN_ANOMALY":178.6172,"EPHEMERIS_TYPE":0,"CLASSIFICATION_TYPE":"U","NORAD_CAT_ID":57045,"ELEMENT_SET_NO":999,"REV_AT_EPOCH":874,"BSTAR":0,"MEAN_MOTION_DOT":0,"MEAN_MOTION_DDOT":0},{"OBJECT_NAME":"FALCON 9 R/B","OBJECT_ID":"2023-086B","EPOCH":"2026-03-06T11:56:21.410592","MEAN_MOTION":1.46546708,"ECCENTRICITY":0.77972802,"INCLINATION":26.8196,"RA_OF_ASC_NODE":231.3786,"ARG_OF_PERICENTER":146.6331,"MEAN_ANOMALY":304.8924,"EPHEMERIS_TYPE":0,"CLASSIFICATION_TYPE":"U","NORAD_CAT_ID":57046,"ELEMENT_SET_NO":999,"REV_AT_EPOCH":1413,"BSTAR":0.0079303018,"MEAN_MOTION_DOT":-1.72e-6,"MEAN_MOTION_DDOT":0},{"OBJECT_NAME":"H2SAT (HEINRICH HERTZ)","OBJECT_ID":"2023-093A","EPOCH":"2026-03-07T06:22:38.729856","MEAN_MOTION":1.00271728,"ECCENTRICITY":0.000151,"INCLINATION":0.0447,"RA_OF_ASC_NODE":303.7803,"ARG_OF_PERICENTER":161.359,"MEAN_ANOMALY":156.1757,"EPHEMERIS_TYPE":0,"CLASSIFICATION_TYPE":"U","NORAD_CAT_ID":57213,"ELEMENT_SET_NO":999,"REV_AT_EPOCH":989,"BSTAR":0,"MEAN_MOTION_DOT":0,"MEAN_MOTION_DDOT":0},{"OBJECT_NAME":"SYRACUSE 4B","OBJECT_ID":"2023-093B","EPOCH":"2026-03-07T10:18:38.761056","MEAN_MOTION":1.00271445,"ECCENTRICITY":3.572e-5,"INCLINATION":0.0212,"RA_OF_ASC_NODE":142.2018,"ARG_OF_PERICENTER":272.8516,"MEAN_ANOMALY":258.2559,"EPHEMERIS_TYPE":0,"CLASSIFICATION_TYPE":"U","NORAD_CAT_ID":57214,"ELEMENT_SET_NO":999,"REV_AT_EPOCH":594,"BSTAR":0,"MEAN_MOTION_DOT":-5.5e-7,"MEAN_MOTION_DDOT":0},{"OBJECT_NAME":"JUPITER 3 (ECHOSTAR 24)","OBJECT_ID":"2023-108A","EPOCH":"2026-03-06T19:22:34.220064","MEAN_MOTION":1.00271639,"ECCENTRICITY":0.0001123,"INCLINATION":0.0104,"RA_OF_ASC_NODE":140.1189,"ARG_OF_PERICENTER":200.5797,"MEAN_ANOMALY":19.2714,"EPHEMERIS_TYPE":0,"CLASSIFICATION_TYPE":"U","NORAD_CAT_ID":57479,"ELEMENT_SET_NO":999,"REV_AT_EPOCH":962,"BSTAR":0,"MEAN_MOTION_DOT":-1.53e-6,"MEAN_MOTION_DDOT":0},{"OBJECT_NAME":"FALCON HEAVY R/B","OBJECT_ID":"2023-108B","EPOCH":"2026-03-07T02:30:49.513536","MEAN_MOTION":1.84352725,"ECCENTRICITY":0.4952379,"INCLINATION":11.1071,"RA_OF_ASC_NODE":103.3534,"ARG_OF_PERICENTER":12.2595,"MEAN_ANOMALY":356.5312,"EPHEMERIS_TYPE":0,"CLASSIFICATION_TYPE":"U","NORAD_CAT_ID":57480,"ELEMENT_SET_NO":999,"REV_AT_EPOCH":1756,"BSTAR":0,"MEAN_MOTION_DOT":-1.11e-6,"MEAN_MOTION_DDOT":0},{"OBJECT_NAME":"GALAXY 37 (G-37)","OBJECT_ID":"2023-112A","EPOCH":"2026-03-07T12:33:38.603808","MEAN_MOTION":1.0027238,"ECCENTRICITY":0.00020344,"INCLINATION":0.0153,"RA_OF_ASC_NODE":104.8074,"ARG_OF_PERICENTER":248.7216,"MEAN_ANOMALY":233.0938,"EPHEMERIS_TYPE":0,"CLASSIFICATION_TYPE":"U","NORAD_CAT_ID":57493,"ELEMENT_SET_NO":999,"REV_AT_EPOCH":952,"BSTAR":0,"MEAN_MOTION_DOT":4.7e-7,"MEAN_MOTION_DDOT":0},{"OBJECT_NAME":"ATLAS 5 CENTAUR DEB","OBJECT_ID":"2018-079HR","EPOCH":"2026-02-26T05:20:58.471008","MEAN_MOTION":1.56216679,"ECCENTRICITY":0.49442951,"INCLINATION":11.7561,"RA_OF_ASC_NODE":96.4039,"ARG_OF_PERICENTER":185.5928,"MEAN_ANOMALY":165.7012,"EPHEMERIS_TYPE":0,"CLASSIFICATION_TYPE":"U","NORAD_CAT_ID":57590,"ELEMENT_SET_NO":999,"REV_AT_EPOCH":2472,"BSTAR":0,"MEAN_MOTION_DOT":-7.9e-7,"MEAN_MOTION_DDOT":0},{"OBJECT_NAME":"ATLAS 5 CENTAUR DEB","OBJECT_ID":"2018-079HW","EPOCH":"2026-02-26T06:38:06.149184","MEAN_MOTION":1.69242768,"ECCENTRICITY":0.46863049,"INCLINATION":12.5292,"RA_OF_ASC_NODE":80.5223,"ARG_OF_PERICENTER":224.1991,"MEAN_ANOMALY":87.1117,"EPHEMERIS_TYPE":0,"CLASSIFICATION_TYPE":"U","NORAD_CAT_ID":57595,"ELEMENT_SET_NO":999,"REV_AT_EPOCH":2639,"BSTAR":0,"MEAN_MOTION_DOT":-1.31e-6,"MEAN_MOTION_DDOT":0},{"OBJECT_NAME":"LUDI TANCE-4 01A","OBJECT_ID":"2023-120A","EPOCH":"2026-03-06T19:31:09.994368","MEAN_MOTION":1.00268733,"ECCENTRICITY":0.00050665,"INCLINATION":15.1734,"RA_OF_ASC_NODE":196.5024,"ARG_OF_PERICENTER":107.5025,"MEAN_ANOMALY":242.9324,"EPHEMERIS_TYPE":0,"CLASSIFICATION_TYPE":"U","NORAD_CAT_ID":57624,"ELEMENT_SET_NO":999,"REV_AT_EPOCH":951,"BSTAR":0,"MEAN_MOTION_DOT":-1.91e-6,"MEAN_MOTION_DDOT":0},{"OBJECT_NAME":"TJS-10","OBJECT_ID":"2023-169A","EPOCH":"2026-03-07T18:45:18.639936","MEAN_MOTION":0.99764335,"ECCENTRICITY":0.0010929,"INCLINATION":2.2825,"RA_OF_ASC_NODE":81.7274,"ARG_OF_PERICENTER":235.1643,"MEAN_ANOMALY":245.0783,"EPHEMERIS_TYPE":0,"CLASSIFICATION_TYPE":"U","NORAD_CAT_ID":58204,"ELEMENT_SET_NO":999,"REV_AT_EPOCH":852,"BSTAR":0,"MEAN_MOTION_DOT":-3.09e-6,"MEAN_MOTION_DDOT":0},{"OBJECT_NAME":"ZHONGXING-6E","OBJECT_ID":"2023-172A","EPOCH":"2026-03-06T15:24:38.786112","MEAN_MOTION":1.00267455,"ECCENTRICITY":0.00026556,"INCLINATION":0.0529,"RA_OF_ASC_NODE":267.5543,"ARG_OF_PERICENTER":92.4842,"MEAN_ANOMALY":150.943,"EPHEMERIS_TYPE":0,"CLASSIFICATION_TYPE":"U","NORAD_CAT_ID":58253,"ELEMENT_SET_NO":999,"REV_AT_EPOCH":863,"BSTAR":0,"MEAN_MOTION_DOT":-3.65e-6,"MEAN_MOTION_DDOT":0},{"OBJECT_NAME":"YAOGAN-41","OBJECT_ID":"2023-197A","EPOCH":"2026-03-07T07:39:26.476416","MEAN_MOTION":1.00274066,"ECCENTRICITY":0.00107018,"INCLINATION":3.3174,"RA_OF_ASC_NODE":311.6284,"ARG_OF_PERICENTER":180.2812,"MEAN_ANOMALY":271.2051,"EPHEMERIS_TYPE":0,"CLASSIFICATION_TYPE":"U","NORAD_CAT_ID":58582,"ELEMENT_SET_NO":999,"REV_AT_EPOCH":830,"BSTAR":0,"MEAN_MOTION_DOT":-3.64e-6,"MEAN_MOTION_DDOT":0}]
